NORAD_CAT_ID,OBJECT_NAME,OBJECT_TYPE,EPOCH,MEAN_MOTION,ECCENTRICITY,INCLINATION,RA_OF_ASC_NODE,ARG_OF_PERICENTER,MEAN_ANOMALY,BSTAR,MEAN_MOTION_DOT,MEAN_MOTION_DDOT,TLE_LINE0,TLE_LINE1,TLE_LINE2,SEMIMAJOR_AXIS,PERIOD,APOGEE,PERIGEE,DECAYED
51961.0,STARLINK-3689,PAYLOAD,2022-06-25 16:00:00,15.08848461,0.0001653,53.2164,343.0802,48.4622,12.7669,-0.0012321,-0.00019848,0.0,0 STARLINK-3689,1 51961U 22025F   22176.66667824 -.00019848  00000-0 -12321-2 0  9999,2 51961  53.2164 343.0802 0001653  48.4622  12.7669 15.08848461 18045,6917.855,95.437,540.863,538.576,0.0
51961.0,STARLINK-3689,PAYLOAD,2022-06-25 22:00:00,15.08823326,0.0001738,53.2164,341.9586,43.7278,296.2066,0.0034031999999999,0.00054267,0.0,0 STARLINK-3689,1 51961U 22025F   22176.91667824  .00054267  00000-0  34032-2 0  9992,2 51961  53.2164 341.9586 0001738  43.7278 296.2066 15.08823326  1304,6917.931,95.439,540.999,538.594,0.0
51961.0,STARLINK-3689,PAYLOAD,2022-06-26 08:00:01,15.08838708,0.0001541999999999,53.2165,340.0858,48.6411,35.8064,0.0033393,0.00053257,0.0,0 STARLINK-3689,1 51961U 22025F   22177.33334491  .00053257  00000-0  33393-2 0  9997,2 51961  53.2165 340.0858 0001542  48.6411  35.8064 15.08838708 18159,6917.884,95.438,540.816,538.683,0.0
51961.0,STARLINK-3689,PAYLOAD,2022-06-26 14:00:01,15.088985999999998,0.0001616,53.2168,338.9642,47.1946,316.018,-0.0043511,-0.00068984,0.0,0 STARLINK-3689,1 51961U 22025F   22177.58335648 -.00068984  00000-0 -43511-2 0  9997,2 51961  53.2168 338.9642 0001616  47.1946 316.0180 15.08898600  1307,6917.701,95.434,540.684,538.448,0.0
51961.0,STARLINK-3689,PAYLOAD,2022-06-26 22:00:00,15.08838704,0.000173,53.2167,337.469,40.0012,334.7868,0.0021614,0.00034277,0.0,0 STARLINK-3689,1 51961U 22025F   22177.91667824  .00034277  00000-0  21614-2 0  9994,2 51961  53.2167 337.4690 0001730  40.0012 334.7868 15.08838704 18235,6917.884,95.438,540.946,538.553,0.0
51961.0,STARLINK-3689,PAYLOAD,2022-06-27 06:00:00,15.08826129,0.0001619,53.2171,335.9706,47.3471,339.0596,0.0014475,0.00022815,0.0,0 STARLINK-3689,1 51961U 22025F   22178.25001157  .00022815  00000-0  14475-2 0  9995,2 51961  53.2171 335.9706 0001619  47.3471 339.0596 15.08826129 18285,6917.9230000000025,95.438,540.908,538.668,0.0
51961.0,STARLINK-3689,PAYLOAD,2022-06-27 14:00:01,15.08851868,0.0001743,53.2174,334.4751,48.3866,349.5631,-0.0013716,-0.00022058,0.0,0 STARLINK-3689,1 51961U 22025F   22178.58334491 -.00022058  00000-0 -13716-2 0  9999,2 51961  53.2174 334.4751 0001743  48.3866 349.5631 15.08851868 18339,6917.844,95.437,540.915,538.503,0.0
51961.0,STARLINK-3689,PAYLOAD,2022-06-27 22:00:00,15.08833032,0.0001844,53.2172,332.9796,42.2505,7.3092,0.0029066,0.00046266,0.0,0 STARLINK-3689,1 51961U 22025F   22178.91667824  .00046266  00000-0  29066-2 0  9995,2 51961  53.2172 332.9796 0001844  42.2505   7.3092 15.08833032  1306,6917.901999999999,95.438,541.0419999999998,538.491,0.0
51961.0,STARLINK-3689,PAYLOAD,2022-06-28 06:00:00,15.08842304,0.0001604,53.2176,331.4814,46.7286,14.4371,-0.00066512,-0.00010858,0.0,0 STARLINK-3689,1 51961U 22025F   22179.25001157 -.00010858  00000-0 -66512-3 0  9992,2 51961  53.2176 331.4814 0001604  46.7286  14.4371 15.08842304 18437,6917.873000000001,95.437,540.8480000000002,538.629,0.0
51961.0,STARLINK-3689,PAYLOAD,2022-06-28 14:00:01,15.08842705,0.0001665,53.2178,329.9859,44.9823,27.7699,-0.0016404,-0.00026302,0.0,0 STARLINK-3689,1 51961U 22025F   22179.58334491 -.00026302  00000-0 -16404-2 0  9993,2 51961  53.2178 329.9859 0001665  44.9823  27.7699 15.08842705  1307,6917.871999999999,95.437,540.889,538.585,0.0
51961.0,STARLINK-3689,PAYLOAD,2022-06-28 22:00:00,15.08823757,0.0001771999999999,53.2175,328.4904,39.6025,44.7432,0.002202,0.00034915,0.0,0 STARLINK-3689,1 51961U 22025F   22179.91667824  .00034915  00000-0  22020-2 0  9997,2 51961  53.2175 328.4904 0001772  39.6025  44.7432 15.08823757  1303,6917.93,95.439,541.021,538.569,0.0
51961.0,STARLINK-3689,PAYLOAD,2022-06-29 14:00:01,15.08869531,0.000169,53.2179,325.497,45.5545,61.9717,-0.0031085,-0.00049461,0.0,0 STARLINK-3689,1 51961U 22025F   22180.58334491 -.00049461  00000-0 -31085-2 0  9998,2 51961  53.2179 325.4970 0001690  45.5545  61.9717 15.08869531 18641,6917.79,95.436,540.8240000000002,538.486,0.0
51961.0,STARLINK-3689,PAYLOAD,2022-06-29 22:00:00,15.08827827,0.0001818,53.2175,324.0013,42.0521,77.0908,0.00074312,0.00011555,0.0,0 STARLINK-3689,1 51961U 22025F   22180.91667824  .00011555  00000-0  74312-3 0  9996,2 51961  53.2175 324.0013 0001818  42.0521  77.0908 15.08827827  1305,6917.918000000002,95.438,541.04,538.525,0.0
51961.0,STARLINK-3689,PAYLOAD,2022-06-30 06:00:00,15.08810675,0.0001615,53.2177,322.5033,48.9884,81.7469,0.0028167,0.00044789,0.0,0 STARLINK-3689,1 51961U 22025F   22181.25001157  .00044789  00000-0  28167-2 0  9996,2 51961  53.2177 322.5033 0001615  48.9884  81.7469 15.08810675 18747,6917.97,95.439,540.952,538.7180000000002,0.0
51961.0,STARLINK-3689,PAYLOAD,2022-06-30 14:00:01,15.08848869,0.0001735,53.2178,321.0083,48.0094,94.3003,-0.001618,-0.00025953,0.0,0 STARLINK-3689,1 51961U 22025F   22181.58334491 -.00025953  00000-0 -16180-2 0  9998,2 51961  53.2178 321.0083 0001735  48.0094  94.3003 15.08848869  1308,6917.853,95.437,540.919,538.518,0.0
51961.0,STARLINK-3689,PAYLOAD,2022-06-30 22:00:00,15.08845249,0.0001798,53.2172,319.5125,43.1183,110.7877,-0.00017631,-3.093e-05,0.0,0 STARLINK-3689,1 51961U 22025F   22181.91667824 -.00003093  00000-0 -17631-3 0  9998,2 51961  53.2172 319.5125 0001798  43.1183 110.7877 15.08845249 18843,6917.864000000001,95.437,540.9730000000002,538.486,0.0
51961.0,STARLINK-3689,PAYLOAD,2022-07-01 14:00:01,15.08834933,0.0001665,53.2173,316.5197,45.4903,131.5962,-0.0013282,-0.00021361,0.0,0 STARLINK-3689,1 51961U 22025F   22182.58334491 -.00021361  00000-0 -13282-2 0  9998,2 51961  53.2173 316.5197 0001665  45.4903 131.5962 15.08834933  1305,6917.896,95.438,540.913,538.609,0.0
51961.0,STARLINK-3689,PAYLOAD,2022-07-01 22:00:00,15.08831422,0.000174,53.2168,315.0237,41.7584,146.9061,0.00027307,4.06e-05,0.0,0 STARLINK-3689,1 51961U 22025F   22182.91667824  .00004060  00000-0  27307-3 0  9993,2 51961  53.2168 315.0237 0001740  41.7584 146.9061 15.08831422 18999,6917.906999999997,95.438,540.975,538.568,0.0
51961.0,STARLINK-3689,PAYLOAD,2022-07-02 14:00:01,15.08849222,0.0001723,53.2168,312.0311,45.0474,166.7953,-0.00097249,-0.00015736,0.0,0 STARLINK-3689,1 51961U 22025F   22183.58334491 -.00015736  00000-0 -97249-3 0  9994,2 51961  53.2168 312.0311 0001723  45.0474 166.7953 15.08849222  1309,6917.852,95.437,540.909,538.525,0.0
51961.0,STARLINK-3689,PAYLOAD,2022-07-02 22:00:00,15.08868126,0.0001789,53.2165,310.5348,40.7221,182.7356,0.00031596,4.748e-05,0.0,0 STARLINK-3689,1 51961U 22025F   22183.91667824  .00004748  00000-0  31596-3 0  9992,2 51961  53.2165 310.5348 0001789  40.7221 182.7356 15.08868126  1302,6917.794,95.436,540.8969999999998,538.422,0.0
51961.0,STARLINK-3689,PAYLOAD,2022-07-03 00:00:00,15.08883092,0.0001746,53.2166,310.1601,41.8722,274.4912,-0.0013777999999999,-0.00022175,0.0,0 STARLINK-3689,1 51961U 22025F   22184.00001157 -.00022175  00000-0 -13778-2 0  9991,2 51961  53.2166 310.1601 0001746  41.8722 274.4912 15.08883092 19150,6917.749,95.435,540.822,538.406,0.0
51961.0,STARLINK-3689,PAYLOAD,2022-07-03 14:00:01,15.08875197,0.0001826,53.2166,307.5420000000001,44.1793,202.5436,-0.0043068,-0.00068248,0.0,0 STARLINK-3689,1 51961U 22025F   22184.58334491 -.00068248  00000-0 -43068-2 0  9990,2 51961  53.2166 307.5420 0001826  44.1793 202.5436 15.08875197  1300,6917.773,95.435,540.901,538.375,0.0
51961.0,STARLINK-3689,PAYLOAD,2022-07-03 22:00:00,15.08846553,0.0001808,53.2165,306.0456,39.2335,219.0947,-0.0051875,-0.00081925,0.0,0 STARLINK-3689,1 51961U 22025F   22184.91667824 -.00081925  00000-0 -51875-2 0  9998,2 51961  53.2165 306.0456 0001808  39.2335 219.0947 15.08846553  1303,6917.86,95.437,540.976,538.475,0.0
51961.0,STARLINK-3689,PAYLOAD,2022-07-04 06:00:00,15.08749885,0.0001734,53.2167,304.5476,45.3808,224.5212,0.0039834,0.00063523,0.0,0 STARLINK-3689,1 51961U 22025F   22185.25001157  .00063523  00000-0  39834-2 0  9990,2 51961  53.2167 304.5476 0001734  45.3808 224.5212 15.08749885 19340,6918.156,95.443,541.22,538.821,0.0
51961.0,STARLINK-3689,PAYLOAD,2022-07-04 14:00:01,15.08805312,0.0001962,53.2167,303.0532,44.6483,236.7661,0.00035546,5.368e-05,0.0,0 STARLINK-3689,1 51961U 22025F   22185.58334491  .00005368  00000-0  35546-3 0  9996,2 51961  53.2167 303.0532 0001962  44.6483 236.7661 15.08805312  1309,6917.986,95.44,541.2090000000002,538.494,0.0
51961.0,STARLINK-3689,PAYLOAD,2022-07-04 22:00:00,15.08839269,0.0001987,53.2166,301.5567,42.3099,250.6657,-0.00088645,-0.00014368,0.0,0 STARLINK-3689,1 51961U 22025F   22185.91667824 -.00014368  00000-0 -88645-3 0  9992,2 51961  53.2166 301.5567 0001987  42.3099 250.6657 15.08839269  1302,6917.8830000000025,95.438,541.122,538.373,0.0
51961.0,STARLINK-3689,PAYLOAD,2022-07-05 08:00:01,15.08832928,0.0001879,53.2171,299.685,48.5327,348.9178,0.0014691,0.00023166,0.0,0 STARLINK-3689,1 51961U 22025F   22186.33334491  .00023166  00000-0  14691-2 0  9993,2 51961  53.2171 299.6850 0001879  48.5327 348.9178 15.08832928 19507,6917.901999999999,95.438,541.067,538.467,0.0
51961.0,STARLINK-3689,PAYLOAD,2022-07-05 14:00:01,15.0884726,0.0002033,53.2169,298.5642,43.7684,272.3824,-0.00034519,-5.779e-05,0.0,0 STARLINK-3689,1 51961U 22025F   22186.58334491 -.00005779  00000-0 -34519-3 0  9994,2 51961  53.2169 298.5642 0002033  43.7684 272.3824 15.08847260  1309,6917.858,95.437,541.13,538.317,0.0
51961.0,STARLINK-3689,PAYLOAD,2022-07-05 22:00:00,15.08869202,0.0001965,53.2167,297.0674,40.7795,286.9662,-0.004118,-0.00065286,0.0,0 STARLINK-3689,1 51961U 22025F   22186.91667824 -.00065286  00000-0 -41180-2 0  9990,2 51961  53.2167 297.0674 0001965  40.7795 286.9662 15.08869202  1300,6917.791,95.436,541.015,538.297,0.0
